start=new Date('2023-02-28T00:00:00.000Z').valueOf();
sats=[{"PERIOD":"95.436","RA_OF_ASC_NODE":"23.0558","SEMIMAJOR_AXIS":"6917.827","TLE_LINE1":"1 52294U 22041AK  23058.93420529  .00021286  00000-0  13508-2 0  9991","SITE":"AFETR","MEAN_ANOMALY":"264.0106","DECAY_DATE":null,"FILE":"3846812","ECCENTRICITY":"0.00013900","ELEMENT_SET_NO":"999","EPOCH":"2023-02-27T22:25:15.337056","TIME_SYSTEM":"UTC","MEAN_MOTION":"15.08857576","TLE_LINE2":"2 52294  53.2175  23.0558 0001390  96.1044 264.0106 15.08857576 47571","APOAPSIS":"540.653","EPHEMERIS_TYPE":"0","COUNTRY_CODE":"US","ARG_OF_PERICENTER":"96.1044","INCLINATION":"53.2175","OBJECT_TYPE":"PAYLOAD","REV_AT_EPOCH":"4757","CLASSIFICATION_TYPE":"U","PERIAPSIS":"538.730","LAUNCH_DATE":"2022-04-21","RCS_SIZE":"MEDIUM","GP_ID":"227194948","OBJECT_NAME":"STARLINK-3777","MEAN_MOTION_DDOT":"0.0000000000000","OBJECT_ID":"2022-041AK","MEAN_MOTION_DOT":"0.00021286","BSTAR":"0.00135080000000","MEAN_ELEMENT_THEORY":"SGP4","CENTER_NAME":"EARTH","REF_FRAME":"TEME","NORAD_CAT_ID":"52294"},{"SITE":"AFETR","MEAN_ANOMALY":"251.8133","DECAY_DATE":null,"FILE":"3846396","PERIOD":"95.437","RA_OF_ASC_NODE":"25.9770","SEMIMAJOR_AXIS":"6917.830","TLE_LINE1":"1 52295U 22041AL  23058.28284671  .00014991  00000-0  95755-3 0  9996","MEAN_MOTION":"15.08856504","TLE_LINE2":"2 52295  53.2180  25.9770 0001369 108.3008 251.8133 15.08856504 47470","APOAPSIS":"540.642","COUNTRY_CODE":"US","EPHEMERIS_TYPE":"0","ECCENTRICITY":"0.00013690","ELEMENT_SET_NO":"999","EPOCH":"2023-02-27T06:47:17.955744","TIME_SYSTEM":"UTC","PERIAPSIS":"538.748","LAUNCH_DATE":"2022-04-21","GP_ID":"227159504","RCS_SIZE":"LARGE","ARG_OF_PERICENTER":"108.3008","INCLINATION":"53.2180","OBJECT_TYPE":"PAYLOAD","REV_AT_EPOCH":"4747","CLASSIFICATION_TYPE":"U","BSTAR":"0.00095755000000","MEAN_ELEMENT_THEORY":"SGP4","CENTER_NAME":"EARTH","REF_FRAME":"TEME","NORAD_CAT_ID":"52295","OBJECT_NAME":"STARLINK-3765","MEAN_MOTION_DDOT":"0.0000000000000","OBJECT_ID":"2022-041AL","MEAN_MOTION_DOT":"0.00014991"},{"PERIAPSIS":"538.629","LAUNCH_DATE":"2022-04-21","RCS_SIZE":"LARGE","GP_ID":"227196449","REV_AT_EPOCH":"4757","OBJECT_TYPE":"PAYLOAD","ARG_OF_PERICENTER":"71.6815","INCLINATION":"53.2169","CLASSIFICATION_TYPE":"U","MEAN_ELEMENT_THEORY":"SGP4","REF_FRAME":"TEME","CENTER_NAME":"EARTH","BSTAR":"0.00217260000000","NORAD_CAT_ID":"52296","OBJECT_NAME":"STARLINK-3766","MEAN_MOTION_DOT":"0.00034501","OBJECT_ID":"2022-041AM","MEAN_MOTION_DDOT":"0.0000000000000","MEAN_ANOMALY":"288.4332","SITE":"AFETR","FILE":"3846812","DECAY_DATE":null,"PERIOD":"95.435","TLE_LINE1":"1 52296U 22041AM  23058.92315869  .00034501  00000-0  21726-2 0  9997","SEMIMAJOR_AXIS":"6917.744","RA_OF_ASC_NODE":"23.1052","TLE_LINE2":"2 52296  53.2169  23.1052 0001417  71.6815 288.4332 15.08884610 47570","MEAN_MOTION":"15.08884610","EPHEMERIS_TYPE":"0","COUNTRY_CODE":"US","APOAPSIS":"540.589","ECCENTRICITY":"0.00014170","TIME_SYSTEM":"UTC","EPOCH":"2023-02-27T22:09:20.910816","ELEMENT_SET_NO":"999"},{"CLASSIFICATION_TYPE":"U","OBJECT_TYPE":"PAYLOAD","REV_AT_EPOCH":"4748","ARG_OF_PERICENTER":"107.8761","INCLINATION":"53.2179","GP_ID":"227160505","RCS_SIZE":"LARGE","PERIAPSIS":"538.564","LAUNCH_DATE":"2022-04-21","MEAN_MOTION_DOT":"0.00025694","MEAN_MOTION_DDOT":"0.0000000000000","OBJECT_ID":"2022-041AN","OBJECT_NAME":"STARLINK-3758","NORAD_CAT_ID":"52297","REF_FRAME":"TEME","CENTER_NAME":"EARTH","MEAN_ELEMENT_THEORY":"SGP4","BSTAR":"0.00162470000000","TLE_LINE1":"1 52297U 22041AN  23058.34539920  .00025694  00000-0  16247-2 0  9995","RA_OF_ASC_NODE":"25.6965","SEMIMAJOR_AXIS":"6917.751","PERIOD":"95.435","FILE":"3846396","DECAY_DATE":null,"MEAN_ANOMALY":"252.2397","SITE":"AFETR","ELEMENT_SET_NO":"999","EPOCH":"2023-02-27T08:17:22.490880","TIME_SYSTEM":"UTC","ECCENTRICITY":"0.00015210","APOAPSIS":"540.668","EPHEMERIS_TYPE":"0","COUNTRY_CODE":"US","TLE_LINE2":"2 52297  53.2179  25.6965 0001521 107.8761 252.2397 15.08882239 47485","MEAN_MOTION":"15.08882239"},{"ECCENTRICITY":"0.00008480","EPOCH":"2023-02-27T22:05:25.911456","ELEMENT_SET_NO":"999","TIME_SYSTEM":"UTC","TLE_LINE2":"2 52298  53.2161  23.1174 0000848  68.9661 291.1422 15.08855130 47570","MEAN_MOTION":"15.08855130","APOAPSIS":"540.286","EPHEMERIS_TYPE":"0","COUNTRY_CODE":"US","PERIOD":"95.437","TLE_LINE1":"1 52298U 22041AP  23058.92043879  .00005015  00000-0  33280-3 0  9995","RA_OF_ASC_NODE":"23.1174","SEMIMAJOR_AXIS":"6917.834","MEAN_ANOMALY":"291.1422","SITE":"AFETR","FILE":"3846812","DECAY_DATE":null,"OBJECT_NAME":"STARLINK-3760","MEAN_MOTION_DOT":"0.00005015","MEAN_MOTION_DDOT":"0.0000000000000","OBJECT_ID":"2022-041AP","MEAN_ELEMENT_THEORY":"SGP4","REF_FRAME":"TEME","CENTER_NAME":"EARTH","BSTAR":"0.00033280000000","NORAD_CAT_ID":"52298","OBJECT_TYPE":"PAYLOAD","REV_AT_EPOCH":"4757","ARG_OF_PERICENTER":"68.9661","INCLINATION":"53.2161","CLASSIFICATION_TYPE":"U","LAUNCH_DATE":"2022-04-21","PERIAPSIS":"539.113","RCS_SIZE":"LARGE","GP_ID":"227195447"},{"PERIOD":"95.436","RA_OF_ASC_NODE":"23.3865","SEMIMAJOR_AXIS":"6917.814","TLE_LINE1":"1 52299U 22041AQ  23058.86060621  .00023719  00000-0  15025-2 0  9990","SITE":"AFETR","MEAN_ANOMALY":"280.6244","DECAY_DATE":null,"FILE":"3846812","ECCENTRICITY":"0.00014240","EPOCH":"2023-02-27T20:39:16.376544","ELEMENT_SET_NO":"999","TIME_SYSTEM":"UTC","MEAN_MOTION":"15.08861677","TLE_LINE2":"2 52299  53.2163  23.3865 0001424  79.4909 280.6244 15.08861677 47562","APOAPSIS":"540.664","EPHEMERIS_TYPE":"0","COUNTRY_CODE":"US","ARG_OF_PERICENTER":"79.4909","INCLINATION":"53.2163","OBJECT_TYPE":"PAYLOAD","REV_AT_EPOCH":"4756","CLASSIFICATION_TYPE":"U","LAUNCH_DATE":"2022-04-21","PERIAPSIS":"538.694","RCS_SIZE":"LARGE","GP_ID":"227196199","OBJECT_NAME":"STARLINK-3759","MEAN_MOTION_DDOT":"0.0000000000000","OBJECT_ID":"2022-041AQ","MEAN_MOTION_DOT":"0.00023719","BSTAR":"0.00150250000000","REF_FRAME":"TEME","CENTER_NAME":"EARTH","MEAN_ELEMENT_THEORY":"SGP4","NORAD_CAT_ID":"52299"},{"ECCENTRICITY":"0.00014400","EPOCH":"2023-02-27T21:53:27.408192","ELEMENT_SET_NO":"999","TIME_SYSTEM":"UTC","MEAN_MOTION":"15.08877157","TLE_LINE2":"2 52300  53.2168  23.1496 0001440  82.1314 277.9841 15.08877157 48795","APOAPSIS":"540.628","COUNTRY_CODE":"US","EPHEMERIS_TYPE":"0","PERIOD":"95.435","RA_OF_ASC_NODE":"23.1496","SEMIMAJOR_AXIS":"6917.767","TLE_LINE1":"1 52300U 22041AR  23058.91212278  .00029624  00000-0  18697-2 0  9995","SITE":"AFETR","MEAN_ANOMALY":"277.9841","DECAY_DATE":null,"FILE":"3846812","OBJECT_NAME":"STARLINK-3769","MEAN_MOTION_DDOT":"0.0000000000000","OBJECT_ID":"2022-041AR","MEAN_MOTION_DOT":"0.00029624","BSTAR":"0.00186970000000","MEAN_ELEMENT_THEORY":"SGP4","CENTER_NAME":"EARTH","REF_FRAME":"TEME","NORAD_CAT_ID":"52300","INCLINATION":"53.2168","ARG_OF_PERICENTER":"82.1314","OBJECT_TYPE":"PAYLOAD","REV_AT_EPOCH":"4879","CLASSIFICATION_TYPE":"U","LAUNCH_DATE":"2022-04-21","PERIAPSIS":"538.636","GP_ID":"227195950","RCS_SIZE":"LARGE"},{"TIME_SYSTEM":"UTC","EPOCH":"2023-02-27T09:36:52.176096","ELEMENT_SET_NO":"999","ECCENTRICITY":"0.00013870","COUNTRY_CODE":"US","EPHEMERIS_TYPE":"0","APOAPSIS":"540.601","TLE_LINE2":"2 52301  53.2170  25.4522 0001387  90.0909 270.0242 15.08873879 47494","MEAN_MOTION":"15.08873879","TLE_LINE1":"1 52301U 22041AS  23058.40060389  .00022435  00000-0  14219-2 0  9993","SEMIMAJOR_AXIS":"6917.777","RA_OF_ASC_NODE":"25.4522","PERIOD":"95.435","FILE":"3846396","DECAY_DATE":null,"MEAN_ANOMALY":"270.0242","SITE":"AFETR","MEAN_MOTION_DOT":"0.00022435","OBJECT_ID":"2022-041AS","MEAN_MOTION_DDOT":"0.0000000000000","OBJECT_NAME":"STARLINK-3768","NORAD_CAT_ID":"52301","MEAN_ELEMENT_THEORY":"SGP4","REF_FRAME":"TEME","CENTER_NAME":"EARTH","BSTAR":"0.00142190000000","CLASSIFICATION_TYPE":"U","REV_AT_EPOCH":"4749","OBJECT_TYPE":"PAYLOAD","ARG_OF_PERICENTER":"90.0909","INCLINATION":"53.2170","RCS_SIZE":"LARGE","GP_ID":"227160006","PERIAPSIS":"538.682","LAUNCH_DATE":"2022-04-21"},{"FILE":"3846812","DECAY_DATE":null,"MEAN_ANOMALY":"267.5881","SITE":"AFETR","TLE_LINE1":"1 52302U 22041AT  23058.90199388  .00030512  00000-0  19245-2 0  9990","RA_OF_ASC_NODE":"13.1913","SEMIMAJOR_AXIS":"6917.740","PERIOD":"95.435","APOAPSIS":"540.535","EPHEMERIS_TYPE":"0","COUNTRY_CODE":"US","TLE_LINE2":"2 52302  53.2186  13.1913 0001343  92.5265 267.5881 15.08885776 47707","MEAN_MOTION":"15.08885776","EPOCH":"2023-02-27T21:38:52.271232","ELEMENT_SET_NO":"999","TIME_SYSTEM":"UTC","ECCENTRICITY":"0.00013430","GP_ID":"227194949","RCS_SIZE":"LARGE","PERIAPSIS":"538.676","LAUNCH_DATE":"2022-04-21","CLASSIFICATION_TYPE":"U","OBJECT_TYPE":"PAYLOAD","REV_AT_EPOCH":"4770","INCLINATION":"53.2186","ARG_OF_PERICENTER":"92.5265","NORAD_CAT_ID":"52302","REF_FRAME":"TEME","MEAN_ELEMENT_THEORY":"SGP4","CENTER_NAME":"EARTH","BSTAR":"0.00192450000000","MEAN_MOTION_DOT":"0.00030512","MEAN_MOTION_DDOT":"0.0000000000000","OBJECT_ID":"2022-041AT","OBJECT_NAME":"STARLINK-3564"},{"BSTAR":"0.00272200000000","REF_FRAME":"TEME","MEAN_ELEMENT_THEORY":"SGP4","CENTER_NAME":"EARTH","NORAD_CAT_ID":"52303","OBJECT_NAME":"STARLINK-3742","OBJECT_ID":"2022-041AU","MEAN_MOTION_DDOT":"0.0000000000000","MEAN_MOTION_DOT":"0.00043355","PERIAPSIS":"538.603","LAUNCH_DATE":"2022-04-21","GP_ID":"227195700","RCS_SIZE":"LARGE","ARG_OF_PERICENTER":"75.6667","INCLINATION":"53.2179","REV_AT_EPOCH":"4879","OBJECT_TYPE":"PAYLOAD","CLASSIFICATION_TYPE":"U","MEAN_MOTION":"15.08886443","TLE_LINE2":"2 52303  53.2179  23.1368 0001446  75.6667 284.4486 15.08886443 48798","EPHEMERIS_TYPE":"0","COUNTRY_CODE":"US","APOAPSIS":"540.604","ECCENTRICITY":"0.00014460","TIME_SYSTEM":"UTC","EPOCH":"2023-02-27T21:58:45.355872","ELEMENT_SET_NO":"999","SITE":"AFETR","MEAN_ANOMALY":"284.4486","DECAY_DATE":null,"FILE":"3846812","PERIOD":"95.435","SEMIMAJOR_AXIS":"6917.738","RA_OF_ASC_NODE":"23.1368","TLE_LINE1":"1 52303U 22041AU  23058.91580273  .00043355  00000-0  27220-2 0  9990"}];
